[{"OBJECT_NAME":"STARLINK-5017","OBJECT_ID":"2022-119AF","EPOCH":"2026-03-09T21:21:32.009184","MEAN_MOTION":15.08842616,"ECCENTRICITY":0.00013106,"INCLINATION":53.2176,"RA_OF_ASC_NODE":313.3219,"ARG_OF_PERICENTER":91.7282,"MEAN_ANOMALY":268.386,"EPHEMERIS_TYPE":0,"CLASSIFICATION_TYPE":"U","NORAD_CAT_ID":53915,"ELEMENT_SET_NO":999,"REV_AT_EPOCH":19185,"BSTAR":3.1404676e-5,"MEAN_MOTION_DOT":2.12e-6,"MEAN_MOTION_DDOT":0},{"OBJECT_NAME":"DISKSAT B","OBJECT_ID":"2025-305B","EPOCH":"2026-03-09T19:33:34.074144","MEAN_MOTION":15.07484556,"ECCENTRICITY":0.00037827,"INCLINATION":45.0018,"RA_OF_ASC_NODE":250.2098,"ARG_OF_PERICENTER":311.4052,"MEAN_ANOMALY":48.6498,"EPHEMERIS_TYPE":0,"CLASSIFICATION_TYPE":"U","NORAD_CAT_ID":67220,"ELEMENT_SET_NO":999,"REV_AT_EPOCH":1231,"BSTAR":0.00082400752,"MEAN_MOTION_DOT":0.00012481,"MEAN_MOTION_DDOT":0}]
